{
  "type": "FeatureCollection",
  "features": [
    {
      "type": "Feature",
      "properties": {
        "norad_id": 67140,
        "name": "KUIPER-00186",
        "group": "last-30-days",
        "lat": 24.949752803339585,
        "lon": 76.73159528384527,
        "alt_km": 458.81802095560306,
        "timestamp": "2025-12-27T05:29:37.920805+00:00",
        "meta_object_name": "KUIPER-00186",
        "meta_object_id": "2025-301H",
        "meta_epoch": "2025-12-26T18:24:57.394080",
        "meta_mean_motion": 15.35057816,
        "meta_eccentricity": 0.00077321,
        "meta_inclination": 51.8686,
        "meta_ra_of_asc_node": 57.5207,
        "meta_arg_of_pericenter": 133.157,
        "meta_mean_anomaly": 227.0064,
        "meta_ephemeris_type": 0,
        "meta_classification_type": "U",
        "meta_norad_cat_id": 67140,
        "meta_element_set_no": 999,
        "meta_rev_at_epoch": 252,
        "meta_bstar": 0.00091971212,
        "meta_mean_motion_dot": 0.0003154,
        "meta_mean_motion_ddot": 0,
        "tle_line1": "1 67140U 25301H   25360.76733095  .00031540  00000+0  91971-3 0  9997",
        "tle_line2": "2 67140  51.8686  57.5207 0007732 133.1570 227.0064 15.35057816  2520"
      },
      "geometry": {
        "type": "Point",
        "coordinates": [
          76.73159528384527,
          24.949752803339585
        ]
      }
    },
    {
      "type": "Feature",
      "properties": {
        "norad_id": 67141,
        "name": "KUIPER-00187",
        "group": "last-30-days",
        "lat": 45.070581050996935,
        "lon": 107.1719799561106,
        "alt_km": 450.42246422213066,
        "timestamp": "2025-12-27T05:29:37.920815+00:00",
        "meta_object_name": "KUIPER-00187",
        "meta_object_id": "2025-301J",
        "meta_epoch": "2025-12-26T21:24:27.345024",
        "meta_mean_motion": 15.35874319,
        "meta_eccentricity": 0.00043935,
        "meta_inclination": 51.872,
        "meta_ra_of_asc_node": 56.8567,
        "meta_arg_of_pericenter": 118.8271,
        "meta_mean_anomaly": 241.3157,
        "meta_ephemeris_type": 0,
        "meta_classification_type": "U",
        "meta_norad_cat_id": 67141,
        "meta_element_set_no": 999,
        "meta_rev_at_epoch": 254,
        "meta_bstar": 0.0010151195,
        "meta_mean_motion_dot": 0.0003578,
        "meta_mean_motion_ddot": 0,
        "tle_line1": "1 67141U 25301J   25360.89198316  .00035780  00000+0  10151-2 0  9993",
        "tle_line2": "2 67141  51.8720  56.8567 0004393 118.8271 241.3157 15.35874319  2548"
      },
      "geometry": {
        "type": "Point",
        "coordinates": [
          107.1719799561106,
          45.070581050996935
        ]
      }
    },
    {
      "type": "Feature",
      "properties": {
        "norad_id": 67142,
        "name": "KUIPER-00188",
        "group": "last-30-days",
        "lat": 22.127975776404234,
        "lon": 73.93060947385699,
        "alt_km": 460.2223486997418,
        "timestamp": "2025-12-27T05:29:37.920824+00:00",
        "meta_object_name": "KUIPER-00188",
        "meta_object_id": "2025-301K",
        "meta_epoch": "2025-12-26T18:25:54.546816",
        "meta_mean_motion": 15.34963811,
        "meta_eccentricity": 0.00073898,
        "meta_inclination": 51.8696,
        "meta_ra_of_asc_node": 57.5251,
        "meta_arg_of_pericenter": 137.8145,
        "meta_mean_anomaly": 222.341,
        "meta_ephemeris_type": 0,
        "meta_classification_type": "U",
        "meta_norad_cat_id": 67142,
        "meta_element_set_no": 999,
        "meta_rev_at_epoch": 252,
        "meta_bstar": 0.00086555663,
        "meta_mean_motion_dot": 0.0002956,
        "meta_mean_motion_ddot": 0,
        "tle_line1": "1 67142U 25301K   25360.76799244  .00029560  00000+0  86556-3 0  9999",
        "tle_line2": "2 67142  51.8696  57.5251 0007389 137.8145 222.3410 15.34963811  2522"
      },
      "geometry": {
        "type": "Point",
        "coordinates": [
          73.93060947385699,
          22.127975776404234
        ]
      }
    },
    {
      "type": "Feature",
      "properties": {
        "norad_id": 67143,
        "name": "KUIPER-00191",
        "group": "last-30-days",
        "lat": 28.84280099145278,
        "lon": 80.92004573713078,
        "alt_km": 457.1747356526257,
        "timestamp": "2025-12-27T05:29:37.920836+00:00",
        "meta_object_name": "KUIPER-00191",
        "meta_object_id": "2025-301L",
        "meta_epoch": "2025-12-26T21:31:05.428704",
        "meta_mean_motion": 15.35204333,
        "meta_eccentricity": 0.0006619,
        "meta_inclination": 51.8678,
        "meta_ra_of_asc_node": 56.8879,
        "meta_arg_of_pericenter": 133.4124,
        "meta_mean_anomaly": 226.7414,
        "meta_ephemeris_type": 0,
        "meta_classification_type": "U",
        "meta_norad_cat_id": 67143,
        "meta_element_set_no": 999,
        "meta_rev_at_epoch": 257,
        "meta_bstar": 0.001019003,
        "meta_mean_motion_dot": 0.0003516,
        "meta_mean_motion_ddot": 0,
        "tle_line1": "1 67143U 25301L   25360.89659061  .00035160  00000+0  10190-2 0  9999",
        "tle_line2": "2 67143  51.8678  56.8879 0006619 133.4124 226.7414 15.35204333  2570"
      },
      "geometry": {
        "type": "Point",
        "coordinates": [
          80.92004573713078,
          28.84280099145278
        ]
      }
    },
    {
      "type": "Feature",
      "properties": {
        "norad_id": 67144,
        "name": "KUIPER-00196",
        "group": "last-30-days",
        "lat": 48.80584111875153,
        "lon": 119.02016481383876,
        "alt_km": 448.7508786382932,
        "timestamp": "2025-12-27T05:29:37.920846+00:00",
        "meta_object_name": "KUIPER-00196",
        "meta_object_id": "2025-301M",
        "meta_epoch": "2025-12-26T21:22:12.561888",
        "meta_mean_motion": 15.36078575,
        "meta_eccentricity": 0.00038363,
        "meta_inclination": 51.8735,
        "meta_ra_of_asc_node": 56.8435,
        "meta_arg_of_pericenter": 104.5817,
        "meta_mean_anomaly": 255.5595,
        "meta_ephemeris_type": 0,
        "meta_classification_type": "U",
        "meta_norad_cat_id": 67144,
        "meta_element_set_no": 999,
        "meta_rev_at_epoch": 254,
        "meta_bstar": 0.0010778351,
        "meta_mean_motion_dot": 0.00038277,
        "meta_mean_motion_ddot": 0,
        "tle_line1": "1 67144U 25301M   25360.89042317  .00038277  00000+0  10778-2 0  9994",
        "tle_line2": "2 67144  51.8735  56.8435 0003836 104.5817 255.5595 15.36078575  2544"
      },
      "geometry": {
        "type": "Point",
        "coordinates": [
          119.02016481383876,
          48.80584111875153
        ]
      }
    },
    {
      "type": "Feature",
      "properties": {
        "norad_id": 67145,
        "name": "KUIPER-00204",
        "group": "last-30-days",
        "lat": 51.73403947403637,
        "lon": 150.5085240452447,
        "alt_km": 447.7485272200647,
        "timestamp": "2025-12-27T05:29:37.920856+00:00",
        "meta_object_name": "KUIPER-00204",
        "meta_object_id": "2025-301N",
        "meta_epoch": "2025-12-26T19:43:28.140672",
        "meta_mean_motion": 15.3658141,
        "meta_eccentricity": 0.0001984,
        "meta_inclination": 51.8752,
        "meta_ra_of_asc_node": 57.1271,
        "meta_arg_of_pericenter": 76.7386,
        "meta_mean_anomaly": 283.3821,
        "meta_ephemeris_type": 0,
        "meta_classification_type": "U",
        "meta_norad_cat_id": 67145,
        "meta_element_set_no": 999,
        "meta_rev_at_epoch": 264,
        "meta_bstar": 0.00092439131,
        "meta_mean_motion_dot": 0.00033285,
        "meta_mean_motion_ddot": 0,
        "tle_line1": "1 67145U 25301N   25360.82185348  .00033285  00000+0  92439-3 0  9999",
        "tle_line2": "2 67145  51.8752  57.1271 0001984  76.7386 283.3821 15.36581410  2648"
      },
      "geometry": {
        "type": "Point",
        "coordinates": [
          150.5085240452447,
          51.73403947403637
        ]
      }
    },
    {
      "type": "Feature",
      "properties": {
        "norad_id": 67146,
        "name": "KUIPER-00210",
        "group": "last-30-days",
        "lat": -1.5152618945361078,
        "lon": 54.17237665609011,
        "alt_km": 470.7381457645106,
        "timestamp": "2025-12-27T05:29:37.920866+00:00",
        "meta_object_name": "KUIPER-00210",
        "meta_object_id": "2025-301P",
        "meta_epoch": "2025-12-26T18:33:32.598144",
        "meta_mean_motion": 15.34205466,
        "meta_eccentricity": 0.00105869,
        "meta_inclination": 51.8604,
        "meta_ra_of_asc_node": 57.5575,
        "meta_arg_of_pericenter": 151.9201,
        "meta_mean_anomaly": 208.2357,
        "meta_ephemeris_type": 0,
        "meta_classification_type": "U",
        "meta_norad_cat_id": 67146,
        "meta_element_set_no": 999,
        "meta_rev_at_epoch": 269,
        "meta_bstar": 0.00085165145,
        "meta_mean_motion_dot": 0.000284,
        "meta_mean_motion_ddot": 0,
        "tle_line1": "1 67146U 25301P   25360.77329396  .00028400  00000+0  85165-3 0  9998",
        "tle_line2": "2 67146  51.8604  57.5575 0010586 151.9201 208.2357 15.34205466  2693"
      },
      "geometry": {
        "type": "Point",
        "coordinates": [
          54.17237665609011,
          -1.5152618945361078
        ]
      }
    }
  ]
}